LEMUR-2-AMANDA-SVANTE   
1 48269U 21034B   26068.77637527  .00030872  00000+0  11134-2 0  9996
2 48269  97.5829 144.8625 0002703 205.4721 154.6385 15.28469003265849
STARLINK-32762          
1 62748U 25014P   26068.58471369  .00027589  00000+0  10081-2 0  9996
2 62748  43.0000 158.2437 0001379 259.5202 100.5494 15.27587667 63209
