[{"OBJECT_NAME":"LEMUR-2-AMANDA-SVANTE","OBJECT_ID":"2021-034B","EPOCH":"2026-03-09T18:37:58.823328","MEAN_MOTION":15.28469003,"ECCENTRICITY":0.00027027,"INCLINATION":97.5829,"RA_OF_ASC_NODE":144.8625,"ARG_OF_PERICENTER":205.4721,"MEAN_ANOMALY":154.6385,"EPHEMERIS_TYPE":0,"CLASSIFICATION_TYPE":"U","NORAD_CAT_ID":48269,"ELEMENT_SET_NO":999,"REV_AT_EPOCH":26584,"BSTAR":0.0011134246,"MEAN_MOTION_DOT":0.00030872,"MEAN_MOTION_DDOT":0},{"OBJECT_NAME":"STARLINK-32762","OBJECT_ID":"2025-014P","EPOCH":"2026-03-09T14:01:59.262816","MEAN_MOTION":15.27587667,"ECCENTRICITY":0.0001379,"INCLINATION":43,"RA_OF_ASC_NODE":158.2437,"ARG_OF_PERICENTER":259.5202,"MEAN_ANOMALY":100.5494,"EPHEMERIS_TYPE":0,"CLASSIFICATION_TYPE":"U","NORAD_CAT_ID":62748,"ELEMENT_SET_NO":999,"REV_AT_EPOCH":6320,"BSTAR":0.0010081,"MEAN_MOTION_DOT":0.00027589,"MEAN_MOTION_DDOT":0}]
